[
    {
        "Altitude(m)": 624792.7466975069,
        "Argument of Periapsis(deg)": 0.0,
        "Eccentricity": 0.0,
        "Inclination(deg)": 60.0,
        "Latitude(deg)": -59.14701064469705,
        "Longitude(deg)": 54.026517110500464,
        "Mean Anomaly(deg)": -98.18179999999998,
        "RAAN(deg)": 260.0,
        "Satellite Name": "Test1 1160",
        "Satellite Number": 1160,
        "Semi-Major Axis(m)": 6980739.136638005,
        "Time(s)": 0
    },
    {
        "Altitude(m)": 624842.1383598726,
        "Argument of Periapsis(deg)": 0.00010418945913296404,
        "Eccentricity": 0.0,
        "Inclination(deg)": 60.0,
        "Latitude(deg)": -59.289092900608864,
        "Longitude(deg)": 55.15601925753108,
        "Mean Anomaly(deg)": -97.56169385453813,
        "RAAN(deg)": 259.99957995086027,
        "Satellite Name": "Test1 1160",
        "Satellite Number": 1160,
        "Semi-Major Axis(m)": 6980739.136638005,
        "Time(s)": 10
    }
]